{
"type": "FeatureCollection",
"name": "bangunan_lod2",
"crs": { "type": "name", "properties": { "name": "urn:ogc:def:crs:OGC:1.3:CRS84" } },
"features": [
{ "type": "Feature", "properties": { "fid": 1.0, "Shape_Leng": 301.857200132, "Shape_Area": 6140.3130947600002, "nama_objek": "G. Audit", "jenis_obje": null, "luas_m2": 6140.3130947600002, "sumber_dat": null, "keterangan": null, "luas_text": "6140 m²", "_count": 24560.0, "_sum": 28228.40266948918, "_mean": 1.1493649295394619, "_max": 28.700914306640641, "kode_objek": null, "layer": "BG_DEL — zonal_statistics", "path": "C:/Users/Dendi Duandiarta/Documents/semester 6/SURVEI KADASTER/PRAKTIKUM/ACARA 3/output/output/BG_DEL.gpkg|layername=zonal_statistics" }, "geometry": { "type": "MultiPolygon", "coordinates": [ [ [ [ 110.408236466244105, -7.761027345593827 ], [ 110.408315395775034, -7.761053870960298 ], [ 110.408579597795168, -7.761602441077079 ], [ 110.408555707166386, -7.761679458397762 ], [ 110.408013484179818, -7.76195566503212 ], [ 110.407969929349775, -7.761942044766694 ], [ 110.407682394000034, -7.761387584167256 ], [ 110.407706819646521, -7.76130874956733 ], [ 110.408236466244105, -7.761027345593827 ] ] ] ] } },
{ "type": "Feature", "properties": { "fid": 2.0, "Shape_Leng": 177.03023400500001, "Shape_Area": 1902.5282073299998, "nama_objek": "G. Rektorat", "jenis_obje": null, "luas_m2": 1902.5282073299998, "sumber_dat": null, "keterangan": null, "luas_text": "1902 m²", "_count": 7610.0, "_sum": 7238.9943526317693, "_mean": 0.95124761532611901, "_max": 25.589838256835947, "kode_objek": null, "layer": "BG_DEL — zonal_statistics", "path": "C:/Users/Dendi Duandiarta/Documents/semester 6/SURVEI KADASTER/PRAKTIKUM/ACARA 3/output/output/BG_DEL.gpkg|layername=zonal_statistics" }, "geometry": { "type": "MultiPolygon", "coordinates": [ [ [ [ 110.409227130685181, -7.761973814754512 ], [ 110.409240895795904, -7.76193452438184 ], [ 110.409560816753014, -7.762036574149014 ], [ 110.409549521970462, -7.762076547257069 ], [ 110.409582937631328, -7.762088428372684 ], [ 110.409489205263782, -7.762384483911852 ], [ 110.409455171360435, -7.762375007045159 ], [ 110.40944083163501, -7.762412748994406 ], [ 110.409118565035627, -7.76231019294852 ], [ 110.409132243666917, -7.762272450997906 ], [ 110.409097715700725, -7.762260255337881 ], [ 110.409192481415744, -7.761963425259588 ], [ 110.409227130685181, -7.761973814754512 ] ] ] ] } },
{ "type": "Feature", "properties": { "fid": 3.0, "Shape_Leng": 146.75478905599999, "Shape_Area": 1302.07312456, "nama_objek": "Perpustakaan", "jenis_obje": null, "luas_m2": 1302.07312456, "sumber_dat": null, "keterangan": null, "luas_text": "1302 m²", "_count": 5209.0, "_sum": 6176.4156420898562, "_mean": 1.1857200311172691, "_max": 16.568187866210934, "kode_objek": null, "layer": "BG_DEL — zonal_statistics", "path": "C:/Users/Dendi Duandiarta/Documents/semester 6/SURVEI KADASTER/PRAKTIKUM/ACARA 3/output/output/BG_DEL.gpkg|layername=zonal_statistics" }, "geometry": { "type": "MultiPolygon", "coordinates": [ [ [ [ 110.409981875045588, -7.761643896152501 ], [ 110.410238761850806, -7.761721502879973 ], [ 110.410121118074031, -7.762099645836079 ], [ 110.409858588915796, -7.76201129907543 ], [ 110.409981875045588, -7.761643896152501 ] ] ] ] } },
{ "type": "Feature", "properties": { "fid": 4.0, "Shape_Leng": 56.066233841299997, "Shape_Area": 167.32438526799999, "nama_objek": "G. Menwa", "jenis_obje": null, "luas_m2": 167.32438526799999, "sumber_dat": null, "keterangan": null, "luas_text": "167 m²", "_count": 673.0, "_sum": 1227.8577461804418, "_mean": 1.8244543033884719, "_max": 15.948709716796884, "kode_objek": null, "layer": "BG_DEL — zonal_statistics", "path": "C:/Users/Dendi Duandiarta/Documents/semester 6/SURVEI KADASTER/PRAKTIKUM/ACARA 3/output/output/BG_DEL.gpkg|layername=zonal_statistics" }, "geometry": { "type": "MultiPolygon", "coordinates": [ [ [ [ 110.409965559946954, -7.761423633056618 ], [ 110.41000933774059, -7.761436715239151 ], [ 110.410025603891896, -7.76138835235721 ], [ 110.410087959227525, -7.76140918760583 ], [ 110.410049516783417, -7.761543639907686 ], [ 110.409940340868786, -7.761511796830826 ], [ 110.409965559946954, -7.761423633056618 ] ] ] ] } },
{ "type": "Feature", "properties": { "fid": 5.0, "Shape_Leng": 193.639531656, "Shape_Area": 1327.47265341, "nama_objek": "G. NAS", "jenis_obje": null, "luas_m2": 1327.47265341, "sumber_dat": null, "keterangan": null, "luas_text": "1327 m²", "_count": 5308.0, "_sum": 2169.1556103515823, "_mean": 0.40865780149803699, "_max": 17.092486572265642, "kode_objek": null, "layer": "BG_DEL — zonal_statistics", "path": "C:/Users/Dendi Duandiarta/Documents/semester 6/SURVEI KADASTER/PRAKTIKUM/ACARA 3/output/output/BG_DEL.gpkg|layername=zonal_statistics" }, "geometry": { "type": "MultiPolygon", "coordinates": [ [ [ [ 110.410596116934144, -7.761744350707898 ], [ 110.411288284283501, -7.761965822077302 ], [ 110.411239493072443, -7.762109200452111 ], [ 110.41054630656059, -7.761883556838782 ], [ 110.410596116934144, -7.761744350707898 ] ] ] ] } },
{ "type": "Feature", "properties": { "fid": 6.0, "Shape_Leng": 306.73002245800001, "Shape_Area": 2597.4562019400005, "nama_objek": "G. Faperta", "jenis_obje": null, "luas_m2": 2597.4562019400005, "sumber_dat": null, "keterangan": null, "luas_text": "2597 m²", "_count": 10387.0, "_sum": 9781.9679241944468, "_mean": 0.94175102764941199, "_max": 18.104007568359378, "kode_objek": null, "layer": "BG_DEL — zonal_statistics", "path": "C:/Users/Dendi Duandiarta/Documents/semester 6/SURVEI KADASTER/PRAKTIKUM/ACARA 3/output/output/BG_DEL.gpkg|layername=zonal_statistics" }, "geometry": { "type": "MultiPolygon", "coordinates": [ [ [ [ 110.410339471709548, -7.762103071018056 ], [ 110.41126608882027, -7.762411253557029 ], [ 110.41122660577615, -7.76253900838299 ], [ 110.410894227247312, -7.762437429189667 ], [ 110.410795472826962, -7.76270716474831 ], [ 110.410563392139807, -7.762636126936939 ], [ 110.410633710437949, -7.762353370376532 ], [ 110.410295703800188, -7.762239650620954 ], [ 110.410339471709548, -7.762103071018056 ] ] ] ] } },
{ "type": "Feature", "properties": { "fid": 7.0, "Shape_Leng": 94.390615402799995, "Shape_Area": 556.76262418500005, "nama_objek": "Rumah Kaca", "jenis_obje": null, "luas_m2": 556.76262418500005, "sumber_dat": null, "keterangan": null, "luas_text": "556 m²", "_count": 2227.0, "_sum": 2291.3168829345818, "_mean": 1.0288805042364531, "_max": 19.318445434570322, "kode_objek": null, "layer": "BG_DEL — zonal_statistics", "path": "C:/Users/Dendi Duandiarta/Documents/semester 6/SURVEI KADASTER/PRAKTIKUM/ACARA 3/output/output/BG_DEL.gpkg|layername=zonal_statistics" }, "geometry": { "type": "MultiPolygon", "coordinates": [ [ [ [ 110.410223895386238, -7.762342134377617 ], [ 110.410424694089485, -7.762405151136275 ], [ 110.410359985095141, -7.762611508884442 ], [ 110.410157547068337, -7.76254755002036 ], [ 110.410223895386238, -7.762342134377617 ] ] ] ] } },
{ "type": "Feature", "properties": { "fid": 8.0, "Shape_Leng": 107.23018615, "Shape_Area": 718.46681905399998, "nama_objek": "G. Dekanat FEB", "jenis_obje": null, "luas_m2": 718.46681905399998, "sumber_dat": null, "keterangan": null, "luas_text": "718 m²", "_count": 2876.0, "_sum": 3045.8429486084051, "_mean": 1.059055267249098, "_max": 12.918335571289077, "kode_objek": null, "layer": "BG_DEL — zonal_statistics", "path": "C:/Users/Dendi Duandiarta/Documents/semester 6/SURVEI KADASTER/PRAKTIKUM/ACARA 3/output/output/BG_DEL.gpkg|layername=zonal_statistics" }, "geometry": { "type": "MultiPolygon", "coordinates": [ [ [ [ 110.408075823410499, -7.762105314887644 ], [ 110.408303240285335, -7.762177518869747 ], [ 110.408228579729879, -7.762409355335844 ], [ 110.407995269382525, -7.762336168936155 ], [ 110.408075823410499, -7.762105314887644 ] ] ] ] } },
{ "type": "Feature", "properties": { "fid": 9.0, "Shape_Leng": 150.13982577600001, "Shape_Area": 964.88111567299995, "nama_objek": "G. Tekkim", "jenis_obje": null, "luas_m2": 964.88111567299995, "sumber_dat": null, "keterangan": null, "luas_text": "964 m²", "_count": 3863.0, "_sum": 2564.7316229248204, "_mean": 0.66392224253813603, "_max": 20.74475219726563, "kode_objek": null, "layer": "BG_DEL — zonal_statistics", "path": "C:/Users/Dendi Duandiarta/Documents/semester 6/SURVEI KADASTER/PRAKTIKUM/ACARA 3/output/output/BG_DEL.gpkg|layername=zonal_statistics" }, "geometry": { "type": "MultiPolygon", "coordinates": [ [ [ [ 110.410863380735634, -7.763003193097602 ], [ 110.411366613002585, -7.763167540096501 ], [ 110.411323062184721, -7.763305309558079 ], [ 110.410813425972975, -7.763148331788719 ], [ 110.410863380735634, -7.763003193097602 ] ] ] ] } },
{ "type": "Feature", "properties": { "fid": 1.0, "Shape_Leng": 165.76924658300001, "Shape_Area": 1106.9955730300001, "nama_objek": null, "jenis_obje": null, "luas_m2": 1106.9955730300001, "sumber_dat": null, "keterangan": null, "luas_text": "1106 m²", "_count": 4426.0, "_sum": 4894.421610529932, "_mean": 1.1058340737754031, "_max": 21.105440063476578, "kode_objek": "G. AL C", "layer": "BG_RTK — zonal_statistics", "path": "C:/Users/Dendi Duandiarta/Documents/semester 6/SURVEI KADASTER/PRAKTIKUM/ACARA 3/output/output/BG_RTK.gpkg|layername=zonal_statistics" }, "geometry": { "type": "MultiPolygon", "coordinates": [ [ [ [ 110.409826358968957, -7.762670706665182 ], [ 110.410344256894405, -7.762834767633084 ], [ 110.410297569305087, -7.76298003832034 ], [ 110.410243620840689, -7.762964202263175 ], [ 110.410236662899749, -7.762983296962661 ], [ 110.410123418568077, -7.762949323549012 ], [ 110.410128734273798, -7.762928185074204 ], [ 110.409949589727731, -7.762872498580497 ], [ 110.409940700107924, -7.762902649244641 ], [ 110.409822505597461, -7.762865750002757 ], [ 110.409830719661116, -7.762835552273651 ], [ 110.409773976318505, -7.76281769429888 ], [ 110.409826358968957, -7.762670706665182 ] ] ] ] } },
{ "type": "Feature", "properties": { "fid": 2.0, "Shape_Leng": 162.65742999700001, "Shape_Area": 1052.3055067099999, "nama_objek": null, "jenis_obje": null, "luas_m2": 1052.3055067099999, "sumber_dat": null, "keterangan": null, "luas_text": "1052 m²", "_count": 4211.0, "_sum": 4478.6431580461876, "_mean": 1.063558099749748, "_max": 21.72686096191407, "kode_objek": "G. AL B", "layer": "BG_RTK — zonal_statistics", "path": "C:/Users/Dendi Duandiarta/Documents/semester 6/SURVEI KADASTER/PRAKTIKUM/ACARA 3/output/output/BG_RTK.gpkg|layername=zonal_statistics" }, "geometry": { "type": "MultiPolygon", "coordinates": [ [ [ [ 110.409685406798118, -7.763121534993974 ], [ 110.409728873379223, -7.762979498099053 ], [ 110.410242310114157, -7.763143949200989 ], [ 110.410197992561436, -7.763285015334041 ], [ 110.41014328902294, -7.763268896004599 ], [ 110.410132342024525, -7.763298151058489 ], [ 110.410021740313411, -7.76326285706227 ], [ 110.410030939919665, -7.763233480190963 ], [ 110.409849333673336, -7.763173460299292 ], [ 110.409843174377755, -7.763194719708497 ], [ 110.409733009746603, -7.763158843737061 ], [ 110.409736634326123, -7.763139517386906 ], [ 110.409685406798118, -7.763121534993974 ] ] ] ] } },
{ "type": "Feature", "properties": { "fid": 3.0, "Shape_Leng": 166.38904719799999, "Shape_Area": 1065.16140905, "nama_objek": null, "jenis_obje": null, "luas_m2": 1065.16140905, "sumber_dat": null, "keterangan": null, "luas_text": "1065 m²", "_count": 4261.0, "_sum": 5287.6021820068418, "_mean": 1.240929871393297, "_max": 21.846201171875009, "kode_objek": "G. AL A", "layer": "BG_RTK — zonal_statistics", "path": "C:/Users/Dendi Duandiarta/Documents/semester 6/SURVEI KADASTER/PRAKTIKUM/ACARA 3/output/output/BG_RTK.gpkg|layername=zonal_statistics" }, "geometry": { "type": "MultiPolygon", "coordinates": [ [ [ [ 110.409626589827127, -7.763287911981911 ], [ 110.410145497321579, -7.763454888094829 ], [ 110.410099839629439, -7.76359247990314 ], [ 110.410040865346033, -7.763575841771283 ], [ 110.410031046891291, -7.763606765415395 ], [ 110.409922332609128, -7.763572580233878 ], [ 110.409932480012131, -7.763539241078782 ], [ 110.409751146263417, -7.763482731953888 ], [ 110.40974095419935, -7.763515572651813 ], [ 110.409631861678122, -7.763479523565144 ], [ 110.409639599625706, -7.76345064668378 ], [ 110.409585998058361, -7.763431207418761 ], [ 110.409626589827127, -7.763287911981911 ] ] ] ] } },
{ "type": "Feature", "properties": { "fid": 4.0, "Shape_Leng": 175.34821674599999, "Shape_Area": 1535.25827, "nama_objek": null, "jenis_obje": null, "luas_m2": 1535.25827, "sumber_dat": null, "keterangan": null, "luas_text": "1535 m²", "_count": 6147.0, "_sum": 5954.4895239258021, "_mean": 0.96868220659277704, "_max": 25.06688171386719, "kode_objek": "G. Lab Terpadu", "layer": "BG_RTK — zonal_statistics", "path": "C:/Users/Dendi Duandiarta/Documents/semester 6/SURVEI KADASTER/PRAKTIKUM/ACARA 3/output/output/BG_RTK.gpkg|layername=zonal_statistics" }, "geometry": { "type": "MultiPolygon", "coordinates": [ [ [ [ 110.409545629608331, -7.763561325221509 ], [ 110.410086552946112, -7.763736121714517 ], [ 110.410029643086744, -7.763948101828543 ], [ 110.409475681765187, -7.763768356607667 ], [ 110.409545629608331, -7.763561325221509 ] ] ] ] } },
{ "type": "Feature", "properties": { "fid": 5.0, "Shape_Leng": 240.447330937, "Shape_Area": 3144.0014474999998, "nama_objek": null, "jenis_obje": null, "luas_m2": 3144.0014474999998, "sumber_dat": null, "keterangan": null, "luas_text": "3144 m²", "_count": 12573.0, "_sum": 16294.428185179289, "_mean": 1.29598569833606, "_max": 15.66797546386718, "kode_objek": "Rumah Dosen", "layer": "BG_RTK — zonal_statistics", "path": "C:/Users/Dendi Duandiarta/Documents/semester 6/SURVEI KADASTER/PRAKTIKUM/ACARA 3/output/output/BG_RTK.gpkg|layername=zonal_statistics" }, "geometry": { "type": "MultiPolygon", "coordinates": [ [ [ [ 110.409432089406678, -7.763472887404827 ], [ 110.409327978106148, -7.763774167418132 ], [ 110.40861513474195, -7.763640998386536 ], [ 110.408706298290909, -7.763270724681728 ], [ 110.409432089406678, -7.763472887404827 ] ] ] ] } },
{ "type": "Feature", "properties": { "fid": 6.0, "Shape_Leng": 126.997329675, "Shape_Area": 701.67914752900003, "nama_objek": null, "jenis_obje": null, "luas_m2": 701.67914752900003, "sumber_dat": null, "keterangan": null, "luas_text": "701 m²", "_count": 2806.0, "_sum": 1746.2794042968937, "_mean": 0.62233763517351903, "_max": 8.5243890380859284, "kode_objek": "Gudang", "layer": "BG_RTK — zonal_statistics", "path": "C:/Users/Dendi Duandiarta/Documents/semester 6/SURVEI KADASTER/PRAKTIKUM/ACARA 3/output/output/BG_RTK.gpkg|layername=zonal_statistics" }, "geometry": { "type": "MultiPolygon", "coordinates": [ [ [ [ 110.408533225715402, -7.762940454915547 ], [ 110.40896111792415, -7.763072564149764 ], [ 110.408920253134454, -7.763196932071562 ], [ 110.408495999874688, -7.763061775098948 ], [ 110.408533225715402, -7.762940454915547 ] ] ] ] } },
{ "type": "Feature", "properties": { "fid": 7.0, "Shape_Leng": 78.161676298100005, "Shape_Area": 362.65998803299999, "nama_objek": null, "jenis_obje": null, "luas_m2": 362.65998803299999, "sumber_dat": null, "keterangan": null, "luas_text": "362 m²", "_count": 1443.0, "_sum": 1820.6765270014519, "_mean": 1.2617300949421011, "_max": 18.749470825195317, "kode_objek": "Kantin FTM", "layer": "BG_RTK — zonal_statistics", "path": "C:/Users/Dendi Duandiarta/Documents/semester 6/SURVEI KADASTER/PRAKTIKUM/ACARA 3/output/output/BG_RTK.gpkg|layername=zonal_statistics" }, "geometry": { "type": "MultiPolygon", "coordinates": [ [ [ [ 110.410208241625426, -7.763796024050095 ], [ 110.410415936004625, -7.763861033129612 ], [ 110.410371849656499, -7.763989098037681 ], [ 110.410164825810085, -7.763928357384025 ], [ 110.410208241625426, -7.763796024050095 ] ] ] ] } },
{ "type": "Feature", "properties": { "fid": 8.0, "Shape_Leng": 105.289636251, "Shape_Area": 692.84443310100005, "nama_objek": null, "jenis_obje": null, "luas_m2": 692.84443310100005, "sumber_dat": null, "keterangan": null, "luas_text": "692 m²", "_count": 2770.0, "_sum": 1841.5323242187524, "_mean": 0.66481311343637295, "_max": 13.37519897460939, "kode_objek": "G. FTM", "layer": "BG_RTK — zonal_statistics", "path": "C:/Users/Dendi Duandiarta/Documents/semester 6/SURVEI KADASTER/PRAKTIKUM/ACARA 3/output/output/BG_RTK.gpkg|layername=zonal_statistics" }, "geometry": { "type": "MultiPolygon", "coordinates": [ [ [ [ 110.410261262353103, -7.763590106023166 ], [ 110.41033259518413, -7.763365089128518 ], [ 110.410560977078816, -7.763436739749745 ], [ 110.410488440587386, -7.763664593402442 ], [ 110.410261262353103, -7.763590106023166 ] ] ] ] } },
{ "type": "Feature", "properties": { "fid": 9.0, "Shape_Leng": 163.94131668899999, "Shape_Area": 1302.9928574, "nama_objek": null, "jenis_obje": null, "luas_m2": 1302.9928574, "sumber_dat": null, "keterangan": null, "luas_text": "1302 m²", "_count": 5210.0, "_sum": 3743.7859509277705, "_mean": 0.71857695795158705, "_max": 21.457706298828128, "kode_objek": "G. AL D", "layer": "BG_RTK — zonal_statistics", "path": "C:/Users/Dendi Duandiarta/Documents/semester 6/SURVEI KADASTER/PRAKTIKUM/ACARA 3/output/output/BG_RTK.gpkg|layername=zonal_statistics" }, "geometry": { "type": "MultiPolygon", "coordinates": [ [ [ [ 110.410770254040628, -7.763265930927324 ], [ 110.411293749162098, -7.763435464580412 ], [ 110.411231584230194, -7.763620952401989 ], [ 110.410713491830876, -7.763452293579561 ], [ 110.410770254040628, -7.763265930927324 ] ] ] ] } },
{ "type": "Feature", "properties": { "fid": 10.0, "Shape_Leng": 164.94708099900001, "Shape_Area": 1309.40732342, "nama_objek": null, "jenis_obje": null, "luas_m2": 1309.40732342, "sumber_dat": null, "keterangan": null, "luas_text": "1309 m²", "_count": 5238.0, "_sum": 781.33893554688962, "_mean": 0.149167418012006, "_max": 24.251173706054686, "kode_objek": "G. AL E", "layer": "BG_RTK — zonal_statistics", "path": "C:/Users/Dendi Duandiarta/Documents/semester 6/SURVEI KADASTER/PRAKTIKUM/ACARA 3/output/output/BG_RTK.gpkg|layername=zonal_statistics" }, "geometry": { "type": "MultiPolygon", "coordinates": [ [ [ [ 110.410669838146745, -7.763579100039599 ], [ 110.411196851941085, -7.763747601228062 ], [ 110.411139064211966, -7.763935870153046 ], [ 110.410614079615613, -7.763762315429302 ], [ 110.410669838146745, -7.763579100039599 ] ] ] ] } },
{ "type": "Feature", "properties": { "fid": 11.0, "Shape_Leng": 157.15825856000001, "Shape_Area": 1000.01682349, "nama_objek": null, "jenis_obje": null, "luas_m2": 1000.01682349, "sumber_dat": null, "keterangan": null, "luas_text": "1000 m²", "_count": 3999.0, "_sum": 1894.0936309814758, "_mean": 0.47364181819991902, "_max": 13.505488891601573, "kode_objek": "Parkiran", "layer": "BG_RTK — zonal_statistics", "path": "C:/Users/Dendi Duandiarta/Documents/semester 6/SURVEI KADASTER/PRAKTIKUM/ACARA 3/output/output/BG_RTK.gpkg|layername=zonal_statistics" }, "geometry": { "type": "MultiPolygon", "coordinates": [ [ [ [ 110.411463110807077, -7.763588829604897 ], [ 110.411326872154902, -7.763545685405693 ], [ 110.411489833400253, -7.763004534445662 ], [ 110.411630491081539, -7.763046427414115 ], [ 110.411463110807077, -7.763588829604897 ] ] ] ] } },
{ "type": "Feature", "properties": { "fid": 12.0, "Shape_Leng": 120.290163706, "Shape_Area": 863.05777794300002, "nama_objek": null, "jenis_obje": null, "luas_m2": 863.05777794300002, "sumber_dat": null, "keterangan": null, "luas_text": "863 m²", "_count": 3450.0, "_sum": 3507.8704443359416, "_mean": 1.016774041836505, "_max": 12.71359741210938, "kode_objek": "Masjid", "layer": "BG_RTK — zonal_statistics", "path": "C:/Users/Dendi Duandiarta/Documents/semester 6/SURVEI KADASTER/PRAKTIKUM/ACARA 3/output/output/BG_RTK.gpkg|layername=zonal_statistics" }, "geometry": { "type": "MultiPolygon", "coordinates": [ [ [ [ 110.407866135819873, -7.76331826127255 ], [ 110.407973011162639, -7.763090938982343 ], [ 110.408046270137206, -7.763118874814674 ], [ 110.408055154022506, -7.763103939103268 ], [ 110.408181631947784, -7.763155710696715 ], [ 110.408173911677196, -7.76317966608281 ], [ 110.408206462558184, -7.763191944998862 ], [ 110.408099648444022, -7.76342483203884 ], [ 110.408075305448733, -7.763415375783074 ], [ 110.408067660084768, -7.763429861863371 ], [ 110.407931857944533, -7.763368701008384 ], [ 110.407939399782165, -7.763353670266304 ], [ 110.407866135819873, -7.76331826127255 ] ] ] ] } },
{ "type": "Feature", "properties": { "fid": 13.0, "Shape_Leng": 190.78415459000001, "Shape_Area": 1268.53544042, "nama_objek": null, "jenis_obje": null, "luas_m2": 1268.53544042, "sumber_dat": null, "keterangan": null, "luas_text": "1268 m²", "_count": 5079.0, "_sum": 5495.3879528808329, "_mean": 1.08198227069912, "_max": 17.616557006835933, "kode_objek": "G. FEB 1", "layer": "BG_RTK — zonal_statistics", "path": "C:/Users/Dendi Duandiarta/Documents/semester 6/SURVEI KADASTER/PRAKTIKUM/ACARA 3/output/output/BG_RTK.gpkg|layername=zonal_statistics" }, "geometry": { "type": "MultiPolygon", "coordinates": [ [ [ [ 110.407522907183321, -7.762614187959861 ], [ 110.408210098765892, -7.762833719905736 ], [ 110.408164244834396, -7.762970535118397 ], [ 110.407479479026165, -7.762752264650339 ], [ 110.407522907183321, -7.762614187959861 ] ] ] ] } },
{ "type": "Feature", "properties": { "fid": 14.0, "Shape_Leng": 207.32744358799999, "Shape_Area": 1410.1782378400001, "nama_objek": null, "jenis_obje": null, "luas_m2": 1410.1782378400001, "sumber_dat": null, "keterangan": null, "luas_text": "1410 m²", "_count": 5639.0, "_sum": 4444.4080157471299, "_mean": 0.78815534948521504, "_max": 17.121624755859386, "kode_objek": "G. FEB 2", "layer": "BG_RTK — zonal_statistics", "path": "C:/Users/Dendi Duandiarta/Documents/semester 6/SURVEI KADASTER/PRAKTIKUM/ACARA 3/output/output/BG_RTK.gpkg|layername=zonal_statistics" }, "geometry": { "type": "MultiPolygon", "coordinates": [ [ [ [ 110.408484977373305, -7.762245302139813 ], [ 110.408624033284156, -7.762286257658895 ], [ 110.408379973634013, -7.763042531067867 ], [ 110.408240350263839, -7.76299605709937 ], [ 110.408484977373305, -7.762245302139813 ] ] ] ] } },
{ "type": "Feature", "properties": { "fid": 15.0, "Shape_Leng": 150.989746693, "Shape_Area": 959.28126993599994, "nama_objek": null, "jenis_obje": null, "luas_m2": 959.28126993599994, "sumber_dat": null, "keterangan": null, "luas_text": "959 m²", "_count": 3838.0, "_sum": 3736.1546082866253, "_mean": 0.97346394171094996, "_max": 17.576903686523451, "kode_objek": "G. FEB 3", "layer": "BG_RTK — zonal_statistics", "path": "C:/Users/Dendi Duandiarta/Documents/semester 6/SURVEI KADASTER/PRAKTIKUM/ACARA 3/output/output/BG_RTK.gpkg|layername=zonal_statistics" }, "geometry": { "type": "MultiPolygon", "coordinates": [ [ [ [ 110.407556908022428, -7.762513192442897 ], [ 110.407720705407229, -7.76200162125227 ], [ 110.407859765718726, -7.762045142231767 ], [ 110.407697940415858, -7.762556446686049 ], [ 110.407556908022428, -7.762513192442897 ] ] ] ] } },
{ "type": "Feature", "properties": { "fid": 16.0, "Shape_Leng": 25.689866800899999, "Shape_Area": 38.446792828600003, "nama_objek": null, "jenis_obje": null, "luas_m2": 38.446792828600003, "sumber_dat": null, "keterangan": null, "luas_text": "38 m²", "_count": 153.0, "_sum": 228.79060424804771, "_mean": 1.4953634264578279, "_max": 7.5007507324218921, "kode_objek": "Satpam", "layer": "BG_RTK — zonal_statistics", "path": "C:/Users/Dendi Duandiarta/Documents/semester 6/SURVEI KADASTER/PRAKTIKUM/ACARA 3/output/output/BG_RTK.gpkg|layername=zonal_statistics" }, "geometry": { "type": "MultiPolygon", "coordinates": [ [ [ [ 110.408473565337403, -7.763490493966612 ], [ 110.40854322456849, -7.763513541215735 ], [ 110.408531250077857, -7.763551138976623 ], [ 110.408459915716421, -7.763535302028101 ], [ 110.408473565337403, -7.763490493966612 ] ] ] ] } },
{ "type": "Feature", "properties": { "fid": 17.0, "Shape_Leng": 181.47563573, "Shape_Area": 1356.8972597100001, "nama_objek": null, "jenis_obje": null, "luas_m2": 1356.8972597100001, "sumber_dat": null, "keterangan": null, "luas_text": "1356 m²", "_count": 5434.0, "_sum": 2739.9300828915739, "_mean": 0.50421974289502602, "_max": 16.521035766601557, "kode_objek": "G. UKM", "layer": "BG_RTK — zonal_statistics", "path": "C:/Users/Dendi Duandiarta/Documents/semester 6/SURVEI KADASTER/PRAKTIKUM/ACARA 3/output/output/BG_RTK.gpkg|layername=zonal_statistics" }, "geometry": { "type": "MultiPolygon", "coordinates": [ [ [ [ 110.407395536278898, -7.762919118222032 ], [ 110.407790353168352, -7.763043355714574 ], [ 110.407738165283945, -7.763198385386479 ], [ 110.407504087373454, -7.763136220089876 ], [ 110.407426479585538, -7.763361671778796 ], [ 110.407266355173476, -7.763318447803261 ], [ 110.407395536278898, -7.762919118222032 ] ] ] ] } }
]
}
