{
"type": "FeatureCollection",
"name": "bangunan",
"features": [
{ "type": "Feature", "properties": { "fid": 1.0, "Shape_Leng": 301.857200132, "Shape_Area": 6140.3130947600002, "nama_objek": "G. Audit", "jenis_obje": null, "luas_m2": 6140.3130947600002, "sumber_dat": null, "keterangan": null, "luas_text": "6140 m²", "_count": 24560.0, "_sum": 28228.40266948918, "_mean": 1.1493649295394619, "_max": 28.700914306640641, "kode_objek": null, "layer": "BG_DEL — zonal_statistics", "path": "C:/Users/Dendi Duandiarta/Documents/semester 6/SURVEI KADASTER/PRAKTIKUM/ACARA 3/output/output/BG_DEL.gpkg|layername=zonal_statistics" }, "geometry": { "type": "MultiPolygon", "coordinates": [ [ [ [ 434749.60329999960959, 9142075.289599999785423 ], [ 434758.310800000093877, 9142072.369200000539422 ], [ 434787.528400000184774, 9142011.7621 ], [ 434784.905899999663234, 9142003.243699999526143 ], [ 434725.158699999563396, 9141972.623999999836087 ], [ 434720.353900000452995, 9141974.123099999502301 ], [ 434688.562400000169873, 9142035.377800000831485 ], [ 434691.243599999696016, 9142044.097200000658631 ], [ 434749.60329999960959, 9142075.289599999785423 ] ] ] ] } },
{ "type": "Feature", "properties": { "fid": 2.0, "Shape_Leng": 177.03023400500001, "Shape_Area": 1902.5282073299998, "nama_objek": "G. Rektorat", "jenis_obje": null, "luas_m2": 1902.5282073299998, "sumber_dat": null, "keterangan": null, "luas_text": "1902 m²", "_count": 7610.0, "_sum": 7238.9943526317693, "_mean": 0.95124761532611901, "_max": 25.589838256835947, "kode_objek": null, "layer": "BG_DEL — zonal_statistics", "path": "C:/Users/Dendi Duandiarta/Documents/semester 6/SURVEI KADASTER/PRAKTIKUM/ACARA 3/output/output/BG_DEL.gpkg|layername=zonal_statistics" }, "geometry": { "type": "MultiPolygon", "coordinates": [ [ [ [ 434858.987700000405312, 9141970.803999999538064 ], [ 434860.499499999918044, 9141975.149900000542402 ], [ 434895.792200000025332, 9141963.916799999773502 ], [ 434894.552899999544024, 9141959.495799999684095 ], [ 434898.239400000311434, 9141958.187400000169873 ], [ 434887.949300000444055, 9141925.442299999296665 ], [ 434884.195000000298023, 9141926.4847999997437 ], [ 434882.619599999859929, 9141922.310000000521541 ], [ 434847.068199999630451, 9141933.5987 ], [ 434848.570700000040233, 9141937.773399999365211 ], [ 434844.761500000022352, 9141939.116399999707937 ], [ 434855.165400000289083, 9141971.947300000116229 ], [ 434858.987700000405312, 9141970.803999999538064 ] ] ] ] } },
{ "type": "Feature", "properties": { "fid": 3.0, "Shape_Leng": 146.75478905599999, "Shape_Area": 1302.07312456, "nama_objek": "Perpustakaan", "jenis_obje": null, "luas_m2": 1302.07312456, "sumber_dat": null, "keterangan": null, "luas_text": "1302 m²", "_count": 5209.0, "_sum": 6176.4156420898562, "_mean": 1.1857200311172691, "_max": 16.568187866210934, "kode_objek": null, "layer": "BG_DEL — zonal_statistics", "path": "C:/Users/Dendi Duandiarta/Documents/semester 6/SURVEI KADASTER/PRAKTIKUM/ACARA 3/output/output/BG_DEL.gpkg|layername=zonal_statistics" }, "geometry": { "type": "MultiPolygon", "coordinates": [ [ [ [ 434942.161000000312924, 9142007.394300000742078 ], [ 434970.49930000025779, 9141998.853800000622869 ], [ 434957.585099999792874, 9141957.029799999669194 ], [ 434928.622999999672174, 9141966.756799999624491 ], [ 434942.161000000312924, 9142007.394300000742078 ] ] ] ] } },
{ "type": "Feature", "properties": { "fid": 4.0, "Shape_Leng": 56.066233841299997, "Shape_Area": 167.32438526799999, "nama_objek": "G. Menwa", "jenis_obje": null, "luas_m2": 167.32438526799999, "sumber_dat": null, "keterangan": null, "luas_text": "167 m²", "_count": 673.0, "_sum": 1227.8577461804418, "_mean": 1.8244543033884719, "_max": 15.948709716796884, "kode_objek": null, "layer": "BG_DEL — zonal_statistics", "path": "C:/Users/Dendi Duandiarta/Documents/semester 6/SURVEI KADASTER/PRAKTIKUM/ACARA 3/output/output/BG_DEL.gpkg|layername=zonal_statistics" }, "geometry": { "type": "MultiPolygon", "coordinates": [ [ [ [ 434940.328099999576807, 9142031.743200000375509 ], [ 434945.157399999909103, 9142030.303600000217557 ], [ 434946.943599999882281, 9142035.652899999171495 ], [ 434953.822599999606609, 9142033.358999999240041 ], [ 434949.604299999773502, 9142018.488600000739098 ], [ 434937.560800000093877, 9142021.9923 ], [ 434940.328099999576807, 9142031.743200000375509 ] ] ] ] } },
{ "type": "Feature", "properties": { "fid": 5.0, "Shape_Leng": 193.639531656, "Shape_Area": 1327.47265341, "nama_objek": "G. NAS", "jenis_obje": null, "luas_m2": 1327.47265341, "sumber_dat": null, "keterangan": null, "luas_text": "1327 m²", "_count": 5308.0, "_sum": 2169.1556103515823, "_mean": 0.40865780149803699, "_max": 17.092486572265642, "kode_objek": null, "layer": "BG_DEL — zonal_statistics", "path": "C:/Users/Dendi Duandiarta/Documents/semester 6/SURVEI KADASTER/PRAKTIKUM/ACARA 3/output/output/BG_DEL.gpkg|layername=zonal_statistics" }, "geometry": { "type": "MultiPolygon", "coordinates": [ [ [ [ 435009.907599999569356, 9141996.38260000012815 ], [ 435086.265399999916553, 9141972.003599999472499 ], [ 435080.907300000078976, 9141956.144799999892712 ], [ 435004.436499999836087, 9141980.984899999573827 ], [ 435009.907599999569356, 9141996.38260000012815 ] ] ] ] } },
{ "type": "Feature", "properties": { "fid": 6.0, "Shape_Leng": 306.73002245800001, "Shape_Area": 2597.4562019400005, "nama_objek": "G. Faperta", "jenis_obje": null, "luas_m2": 2597.4562019400005, "sumber_dat": null, "keterangan": null, "luas_text": "2597 m²", "_count": 10387.0, "_sum": 9781.9679241944468, "_mean": 0.94175102764941199, "_max": 18.104007568359378, "kode_objek": null, "layer": "BG_DEL — zonal_statistics", "path": "C:/Users/Dendi Duandiarta/Documents/semester 6/SURVEI KADASTER/PRAKTIKUM/ACARA 3/output/output/BG_DEL.gpkg|layername=zonal_statistics" }, "geometry": { "type": "MultiPolygon", "coordinates": [ [ [ [ 434981.662999999709427, 9141956.684599999338388 ], [ 435083.886300000362098, 9141922.755100000649691 ], [ 435079.552199999801815, 9141908.625 ], [ 435042.885999999940395, 9141919.804300000891089 ], [ 435032.037999999709427, 9141889.968299999833107 ], [ 435006.436099999584258, 9141897.786399999633431 ], [ 435014.146499999798834, 9141929.057600000873208 ], [ 434976.857800000347197, 9141941.578199999406934 ], [ 434981.662999999709427, 9141956.684599999338388 ] ] ] ] } },
{ "type": "Feature", "properties": { "fid": 7.0, "Shape_Leng": 94.390615402799995, "Shape_Area": 556.76262418500005, "nama_objek": "Rumah Kaca", "jenis_obje": null, "luas_m2": 556.76262418500005, "sumber_dat": null, "keterangan": null, "luas_text": "556 m²", "_count": 2227.0, "_sum": 2291.3168829345818, "_mean": 1.0288805042364531, "_max": 19.318445434570322, "kode_objek": null, "layer": "BG_DEL — zonal_statistics", "path": "C:/Users/Dendi Duandiarta/Documents/semester 6/SURVEI KADASTER/PRAKTIKUM/ACARA 3/output/output/BG_DEL.gpkg|layername=zonal_statistics" }, "geometry": { "type": "MultiPolygon", "coordinates": [ [ [ [ 434968.955400000326335, 9141930.236999999731779 ], [ 434991.106700000353158, 9141923.300899999216199 ], [ 434984.003100000321865, 9141900.47690000012517 ], [ 434961.67090000025928, 9141907.5168999992311 ], [ 434968.955400000326335, 9141930.236999999731779 ] ] ] ] } },
{ "type": "Feature", "properties": { "fid": 8.0, "Shape_Leng": 107.23018615, "Shape_Area": 718.46681905399998, "nama_objek": "G. Dekanat FEB", "jenis_obje": null, "luas_m2": 718.46681905399998, "sumber_dat": null, "keterangan": null, "luas_text": "718 m²", "_count": 2876.0, "_sum": 3045.8429486084051, "_mean": 1.059055267249098, "_max": 12.918335571289077, "kode_objek": null, "layer": "BG_DEL — zonal_statistics", "path": "C:/Users/Dendi Duandiarta/Documents/semester 6/SURVEI KADASTER/PRAKTIKUM/ACARA 3/output/output/BG_DEL.gpkg|layername=zonal_statistics" }, "geometry": { "type": "MultiPolygon", "coordinates": [ [ [ [ 434732.055800000205636, 9141956.088899999856949 ], [ 434757.143699999898672, 9141948.14130000025034 ], [ 434748.946800000034273, 9141922.4989 ], [ 434723.208899999968708, 9141930.554199999198318 ], [ 434732.055800000205636, 9141956.088899999856949 ] ] ] ] } },
{ "type": "Feature", "properties": { "fid": 9.0, "Shape_Leng": 150.13982577600001, "Shape_Area": 964.88111567299995, "nama_objek": "G. Tekkim", "jenis_obje": null, "luas_m2": 964.88111567299995, "sumber_dat": null, "keterangan": null, "luas_text": "964 m²", "_count": 3863.0, "_sum": 2564.7316229248204, "_mean": 0.66392224253813603, "_max": 20.74475219726563, "kode_objek": null, "layer": "BG_DEL — zonal_statistics", "path": "C:/Users/Dendi Duandiarta/Documents/semester 6/SURVEI KADASTER/PRAKTIKUM/ACARA 3/output/output/BG_DEL.gpkg|layername=zonal_statistics" }, "geometry": { "type": "MultiPolygon", "coordinates": [ [ [ [ 435039.57149999961257, 9141857.251000000163913 ], [ 435095.086900000460446, 9141839.158500000834465 ], [ 435090.305800000205636, 9141823.9206000007689 ], [ 435034.085400000214577, 9141841.1974 ], [ 435039.57149999961257, 9141857.251000000163913 ] ] ] ] } },
{ "type": "Feature", "properties": { "fid": 1.0, "Shape_Leng": 165.76924658300001, "Shape_Area": 1106.9955730300001, "nama_objek": null, "jenis_obje": null, "luas_m2": 1106.9955730300001, "sumber_dat": null, "keterangan": null, "luas_text": "1106 m²", "_count": 4426.0, "_sum": 4894.421610529932, "_mean": 1.1058340737754031, "_max": 21.105440063476578, "kode_objek": "G. AL C", "layer": "BG_RTK — zonal_statistics", "path": "C:/Users/Dendi Duandiarta/Documents/semester 6/SURVEI KADASTER/PRAKTIKUM/ACARA 3/output/output/BG_RTK.gpkg|layername=zonal_statistics" }, "geometry": { "type": "MultiPolygon", "coordinates": [ [ [ [ 434925.1705, 9141893.850400000810623 ], [ 434982.303100000135601, 9141875.791899999603629 ], [ 434977.177299999631941, 9141859.724199999123812 ], [ 434971.226099999621511, 9141861.466700000688434 ], [ 434970.461799999698997, 9141859.354599999263883 ], [ 434957.969399999827147, 9141863.0932 ], [ 434958.552299999631941, 9141865.43099999986589 ], [ 434938.789900000207126, 9141871.560000000521541 ], [ 434937.814299999736249, 9141868.225299999117851 ], [ 434924.775600000284612, 9141872.286599999293685 ], [ 434925.676699999719858, 9141875.62639999948442 ], [ 434919.417000000365078, 9141877.592000000178814 ], [ 434925.1705, 9141893.850400000810623 ] ] ] ] } },
{ "type": "Feature", "properties": { "fid": 2.0, "Shape_Leng": 162.65742999700001, "Shape_Area": 1052.3055067099999, "nama_objek": null, "jenis_obje": null, "luas_m2": 1052.3055067099999, "sumber_dat": null, "keterangan": null, "luas_text": "1052 m²", "_count": 4211.0, "_sum": 4478.6431580461876, "_mean": 1.063558099749748, "_max": 21.72686096191407, "kode_objek": "G. AL B", "layer": "BG_RTK — zonal_statistics", "path": "C:/Users/Dendi Duandiarta/Documents/semester 6/SURVEI KADASTER/PRAKTIKUM/ACARA 3/output/output/BG_RTK.gpkg|layername=zonal_statistics" }, "geometry": { "type": "MultiPolygon", "coordinates": [ [ [ [ 434909.697399999946356, 9141843.986999999731779 ], [ 434914.468500000424683, 9141859.696699999272823 ], [ 434971.109199999831617, 9141841.594399999827147 ], [ 434966.244099999777973, 9141825.991900000721216 ], [ 434960.209599999710917, 9141827.765599999576807 ], [ 434959.007000000216067, 9141824.5296 ], [ 434946.805800000205636, 9141828.414599999785423 ], [ 434947.815700000151992, 9141831.663799999281764 ], [ 434927.781200000084937, 9141838.271500000730157 ], [ 434927.105299999937415, 9141835.920199999585748 ], [ 434914.952200000174344, 9141839.869599999859929 ], [ 434915.348899999633431, 9141842.006799999624491 ], [ 434909.697399999946356, 9141843.986999999731779 ] ] ] ] } },
{ "type": "Feature", "properties": { "fid": 3.0, "Shape_Leng": 166.38904719799999, "Shape_Area": 1065.16140905, "nama_objek": null, "jenis_obje": null, "luas_m2": 1065.16140905, "sumber_dat": null, "keterangan": null, "luas_text": "1065 m²", "_count": 4261.0, "_sum": 5287.6021820068418, "_mean": 1.240929871393297, "_max": 21.846201171875009, "kode_objek": "G. AL A", "layer": "BG_RTK — zonal_statistics", "path": "C:/Users/Dendi Duandiarta/Documents/semester 6/SURVEI KADASTER/PRAKTIKUM/ACARA 3/output/output/BG_RTK.gpkg|layername=zonal_statistics" }, "geometry": { "type": "MultiPolygon", "coordinates": [ [ [ [ 434903.237399999983609, 9141825.584000000730157 ], [ 434960.481700000353158, 9141807.203400000929832 ], [ 434955.468299999833107, 9141791.9847999997437 ], [ 434948.962799999862909, 9141793.815199999138713 ], [ 434947.884899999946356, 9141790.394899999722838 ], [ 434935.892, 9141794.157600000500679 ], [ 434937.005800000391901, 9141797.845000000670552 ], [ 434917.001899999566376, 9141804.064600000157952 ], [ 434915.883100000210106, 9141800.432299999520183 ], [ 434903.848199999891222, 9141804.401000000536442 ], [ 434904.696999999694526, 9141807.594699999317527 ], [ 434898.783499999903142, 9141809.735600000247359 ], [ 434903.237399999983609, 9141825.584000000730157 ] ] ] ] } },
{ "type": "Feature", "properties": { "fid": 4.0, "Shape_Leng": 175.34821674599999, "Shape_Area": 1535.25827, "nama_objek": null, "jenis_obje": null, "luas_m2": 1535.25827, "sumber_dat": null, "keterangan": null, "luas_text": "1535 m²", "_count": 6147.0, "_sum": 5954.4895239258021, "_mean": 0.96868220659277704, "_max": 25.06688171386719, "kode_objek": "G. Lab Terpadu", "layer": "BG_RTK — zonal_statistics", "path": "C:/Users/Dendi Duandiarta/Documents/semester 6/SURVEI KADASTER/PRAKTIKUM/ACARA 3/output/output/BG_RTK.gpkg|layername=zonal_statistics" }, "geometry": { "type": "MultiPolygon", "coordinates": [ [ [ [ 434894.35219999961555, 9141795.344100000336766 ], [ 434954.025299999862909, 9141776.102299999445677 ], [ 434947.782599999569356, 9141752.6579 ], [ 434886.671099999919534, 9141772.44480000063777 ], [ 434894.35219999961555, 9141795.344100000336766 ] ] ] ] } },
{ "type": "Feature", "properties": { "fid": 5.0, "Shape_Leng": 240.447330937, "Shape_Area": 3144.0014474999998, "nama_objek": null, "jenis_obje": null, "luas_m2": 3144.0014474999998, "sumber_dat": null, "keterangan": null, "luas_text": "3144 m²", "_count": 12573.0, "_sum": 16294.428185179289, "_mean": 1.29598569833606, "_max": 15.66797546386718, "kode_objek": "Rumah Dosen", "layer": "BG_RTK — zonal_statistics", "path": "C:/Users/Dendi Duandiarta/Documents/semester 6/SURVEI KADASTER/PRAKTIKUM/ACARA 3/output/output/BG_RTK.gpkg|layername=zonal_statistics" }, "geometry": { "type": "MultiPolygon", "coordinates": [ [ [ [ 434881.818799999542534, 9141805.104000000283122 ], [ 434870.385099999606609, 9141771.779699999839067 ], [ 434791.761199999600649, 9141786.392799999564886 ], [ 434801.75650000013411, 9141827.342800000682473 ], [ 434881.818799999542534, 9141805.104000000283122 ] ] ] ] } },
{ "type": "Feature", "properties": { "fid": 6.0, "Shape_Leng": 126.997329675, "Shape_Area": 701.67914752900003, "nama_objek": null, "jenis_obje": null, "luas_m2": 701.67914752900003, "sumber_dat": null, "keterangan": null, "luas_text": "701 m²", "_count": 2806.0, "_sum": 1746.2794042968937, "_mean": 0.62233763517351903, "_max": 8.5243890380859284, "kode_objek": "Gudang", "layer": "BG_RTK — zonal_statistics", "path": "C:/Users/Dendi Duandiarta/Documents/semester 6/SURVEI KADASTER/PRAKTIKUM/ACARA 3/output/output/BG_RTK.gpkg|layername=zonal_statistics" }, "geometry": { "type": "MultiPolygon", "coordinates": [ [ [ [ 434782.621299999766052, 9141863.829500000923872 ], [ 434829.824300000444055, 9141849.289799999445677 ], [ 434825.33739999961108, 9141835.533900000154972 ], [ 434778.535199999809265, 9141850.411100000143051 ], [ 434782.621299999766052, 9141863.829500000923872 ] ] ] ] } },
{ "type": "Feature", "properties": { "fid": 7.0, "Shape_Leng": 78.161676298100005, "Shape_Area": 362.65998803299999, "nama_objek": null, "jenis_obje": null, "luas_m2": 362.65998803299999, "sumber_dat": null, "keterangan": null, "luas_text": "362 m²", "_count": 1443.0, "_sum": 1820.6765270014519, "_mean": 1.2617300949421011, "_max": 18.749470825195317, "kode_objek": "Kantin FTM", "layer": "BG_RTK — zonal_statistics", "path": "C:/Users/Dendi Duandiarta/Documents/semester 6/SURVEI KADASTER/PRAKTIKUM/ACARA 3/output/output/BG_RTK.gpkg|layername=zonal_statistics" }, "geometry": { "type": "MultiPolygon", "coordinates": [ [ [ [ 434967.452800000086427, 9141769.498400000855327 ], [ 434990.364699999801815, 9141762.343100000172853 ], [ 434985.52309999987483, 9141748.177999999374151 ], [ 434962.685800000093877, 9141754.861500000581145 ], [ 434967.452800000086427, 9141769.498400000855327 ] ] ] ] } },
{ "type": "Feature", "properties": { "fid": 8.0, "Shape_Leng": 105.289636251, "Shape_Area": 692.84443310100005, "nama_objek": null, "jenis_obje": null, "luas_m2": 692.84443310100005, "sumber_dat": null, "keterangan": null, "luas_text": "692 m²", "_count": 2770.0, "_sum": 1841.5323242187524, "_mean": 0.66481311343637295, "_max": 13.37519897460939, "kode_objek": "G. FTM", "layer": "BG_RTK — zonal_statistics", "path": "C:/Users/Dendi Duandiarta/Documents/semester 6/SURVEI KADASTER/PRAKTIKUM/ACARA 3/output/output/BG_RTK.gpkg|layername=zonal_statistics" }, "geometry": { "type": "MultiPolygon", "coordinates": [ [ [ [ 434973.267599999904633, 9141792.271999999880791 ], [ 434981.098699999973178, 9141817.159900000318885 ], [ 435006.292799999937415, 9141809.273499999195337 ], [ 434998.329400000162423, 9141784.07179999910295 ], [ 434973.267599999904633, 9141792.271999999880791 ] ] ] ] } },
{ "type": "Feature", "properties": { "fid": 9.0, "Shape_Leng": 163.94131668899999, "Shape_Area": 1302.9928574, "nama_objek": null, "jenis_obje": null, "luas_m2": 1302.9928574, "sumber_dat": null, "keterangan": null, "luas_text": "1302 m²", "_count": 5210.0, "_sum": 3743.7859509277705, "_mean": 0.71857695795158705, "_max": 21.457706298828128, "kode_objek": "G. AL D", "layer": "BG_RTK — zonal_statistics", "path": "C:/Users/Dendi Duandiarta/Documents/semester 6/SURVEI KADASTER/PRAKTIKUM/ACARA 3/output/output/BG_RTK.gpkg|layername=zonal_statistics" }, "geometry": { "type": "MultiPolygon", "coordinates": [ [ [ [ 435029.343000000342727, 9141828.189500000327826 ], [ 435087.093500000424683, 9141809.526699999347329 ], [ 435080.267199999652803, 9141789.01039999909699 ], [ 435023.112599999643862, 9141807.577299999073148 ], [ 435029.343000000342727, 9141828.189500000327826 ] ] ] ] } },
{ "type": "Feature", "properties": { "fid": 10.0, "Shape_Leng": 164.94708099900001, "Shape_Area": 1309.40732342, "nama_objek": null, "jenis_obje": null, "luas_m2": 1309.40732342, "sumber_dat": null, "keterangan": null, "luas_text": "1309 m²", "_count": 5238.0, "_sum": 781.33893554688962, "_mean": 0.149167418012006, "_max": 24.251173706054686, "kode_objek": "G. AL E", "layer": "BG_RTK — zonal_statistics", "path": "C:/Users/Dendi Duandiarta/Documents/semester 6/SURVEI KADASTER/PRAKTIKUM/ACARA 3/output/output/BG_RTK.gpkg|layername=zonal_statistics" }, "geometry": { "type": "MultiPolygon", "coordinates": [ [ [ [ 435018.318500000052154, 9141793.551400000229478 ], [ 435076.456799999810755, 9141775.0033 ], [ 435070.113599999807775, 9141754.18019999936223 ], [ 435012.198300000280142, 9141773.2873 ], [ 435018.318500000052154, 9141793.551400000229478 ] ] ] ] } },
{ "type": "Feature", "properties": { "fid": 11.0, "Shape_Leng": 157.15825856000001, "Shape_Area": 1000.01682349, "nama_objek": null, "jenis_obje": null, "luas_m2": 1000.01682349, "sumber_dat": null, "keterangan": null, "luas_text": "1000 m²", "_count": 3999.0, "_sum": 1894.0936309814758, "_mean": 0.47364181819991902, "_max": 13.505488891601573, "kode_objek": "Parkiran", "layer": "BG_RTK — zonal_statistics", "path": "C:/Users/Dendi Duandiarta/Documents/semester 6/SURVEI KADASTER/PRAKTIKUM/ACARA 3/output/output/BG_RTK.gpkg|layername=zonal_statistics" }, "geometry": { "type": "MultiPolygon", "coordinates": [ [ [ [ 435105.792100000195205, 9141792.597200000658631 ], [ 435090.762799999676645, 9141797.346200000494719 ], [ 435108.649100000038743, 9141857.198599999770522 ], [ 435124.165500000119209, 9141852.588600000366569 ], [ 435105.792100000195205, 9141792.597200000658631 ] ] ] ] } },
{ "type": "Feature", "properties": { "fid": 12.0, "Shape_Leng": 120.290163706, "Shape_Area": 863.05777794300002, "nama_objek": null, "jenis_obje": null, "luas_m2": 863.05777794300002, "sumber_dat": null, "keterangan": null, "luas_text": "863 m²", "_count": 3450.0, "_sum": 3507.8704443359416, "_mean": 1.016774041836505, "_max": 12.71359741210938, "kode_objek": "Masjid", "layer": "BG_RTK — zonal_statistics", "path": "C:/Users/Dendi Duandiarta/Documents/semester 6/SURVEI KADASTER/PRAKTIKUM/ACARA 3/output/output/BG_RTK.gpkg|layername=zonal_statistics" }, "geometry": { "type": "MultiPolygon", "coordinates": [ [ [ [ 434709.121199999935925, 9141821.958100000396371 ], [ 434720.871000000275671, 9141847.1064 ], [ 434728.9534, 9141844.029200000688434 ], [ 434729.930700000375509, 9141845.681800000369549 ], [ 434743.885099999606609, 9141839.977600000798702 ], [ 434743.037499999627471, 9141837.32799999974668 ], [ 434746.628700000233948, 9141835.97550000064075 ], [ 434734.886500000022352, 9141810.21199999935925 ], [ 434732.200799999758601, 9141811.253699999302626 ], [ 434731.360000000335276, 9141809.651000000536442 ], [ 434716.376000000163913, 9141816.391799999400973 ], [ 434717.205299999564886, 9141818.054700000211596 ], [ 434709.121199999935925, 9141821.958100000396371 ] ] ] ] } },
{ "type": "Feature", "properties": { "fid": 13.0, "Shape_Leng": 190.78415459000001, "Shape_Area": 1268.53544042, "nama_objek": null, "jenis_obje": null, "luas_m2": 1268.53544042, "sumber_dat": null, "keterangan": null, "luas_text": "1268 m²", "_count": 5079.0, "_sum": 5495.3879528808329, "_mean": 1.08198227069912, "_max": 17.616557006835933, "kode_objek": "G. FEB 1", "layer": "BG_RTK — zonal_statistics", "path": "C:/Users/Dendi Duandiarta/Documents/semester 6/SURVEI KADASTER/PRAKTIKUM/ACARA 3/output/output/BG_RTK.gpkg|layername=zonal_statistics" }, "geometry": { "type": "MultiPolygon", "coordinates": [ [ [ [ 434671.165500000119209, 9141899.744799999520183 ], [ 434746.974399999715388, 9141875.58 ], [ 434741.939299999736249, 9141860.447200000286102 ], [ 434666.39809999987483, 9141884.472899999469519 ], [ 434671.165500000119209, 9141899.744799999520183 ] ] ] ] } },
{ "type": "Feature", "properties": { "fid": 14.0, "Shape_Leng": 207.32744358799999, "Shape_Area": 1410.1782378400001, "nama_objek": null, "jenis_obje": null, "luas_m2": 1410.1782378400001, "sumber_dat": null, "keterangan": null, "luas_text": "1410 m²", "_count": 5639.0, "_sum": 4444.4080157471299, "_mean": 0.78815534948521504, "_max": 17.121624755859386, "kode_objek": "G. FEB 2", "layer": "BG_RTK — zonal_statistics", "path": "C:/Users/Dendi Duandiarta/Documents/semester 6/SURVEI KADASTER/PRAKTIKUM/ACARA 3/output/output/BG_RTK.gpkg|layername=zonal_statistics" }, "geometry": { "type": "MultiPolygon", "coordinates": [ [ [ [ 434777.193900000303984, 9141940.6754 ], [ 434792.533599999733269, 9141936.1689 ], [ 434765.738300000317395, 9141852.5208 ], [ 434750.335199999623001, 9141857.637299999594688 ], [ 434777.193900000303984, 9141940.6754 ] ] ] ] } },
{ "type": "Feature", "properties": { "fid": 15.0, "Shape_Leng": 150.989746693, "Shape_Area": 959.28126993599994, "nama_objek": null, "jenis_obje": null, "luas_m2": 959.28126993599994, "sumber_dat": null, "keterangan": null, "luas_text": "959 m²", "_count": 3838.0, "_sum": 3736.1546082866253, "_mean": 0.97346394171094996, "_max": 17.576903686523451, "kode_objek": "G. FEB 3", "layer": "BG_RTK — zonal_statistics", "path": "C:/Users/Dendi Duandiarta/Documents/semester 6/SURVEI KADASTER/PRAKTIKUM/ACARA 3/output/output/BG_RTK.gpkg|layername=zonal_statistics" }, "geometry": { "type": "MultiPolygon", "coordinates": [ [ [ [ 434674.899100000038743, 9141910.915699999779463 ], [ 434692.881699999794364, 9141967.498199999332428 ], [ 434708.222299999557436, 9141962.708100000396371 ], [ 434690.457100000232458, 9141906.1554000005126 ], [ 434674.899100000038743, 9141910.915699999779463 ] ] ] ] } },
{ "type": "Feature", "properties": { "fid": 16.0, "Shape_Leng": 25.689866800899999, "Shape_Area": 38.446792828600003, "nama_objek": null, "jenis_obje": null, "luas_m2": 38.446792828600003, "sumber_dat": null, "keterangan": null, "luas_text": "38 m²", "_count": 153.0, "_sum": 228.79060424804771, "_mean": 1.4953634264578279, "_max": 7.5007507324218921, "kode_objek": "Satpam", "layer": "BG_RTK — zonal_statistics", "path": "C:/Users/Dendi Duandiarta/Documents/semester 6/SURVEI KADASTER/PRAKTIKUM/ACARA 3/output/output/BG_RTK.gpkg|layername=zonal_statistics" }, "geometry": { "type": "MultiPolygon", "coordinates": [ [ [ [ 434776.127500000409782, 9141803.010199999436736 ], [ 434783.812199999578297, 9141800.472899999469519 ], [ 434782.497600000351667, 9141796.314400000497699 ], [ 434774.629300000146031, 9141798.054300000891089 ], [ 434776.127500000409782, 9141803.010199999436736 ] ] ] ] } },
{ "type": "Feature", "properties": { "fid": 17.0, "Shape_Leng": 181.47563573, "Shape_Area": 1356.8972597100001, "nama_objek": null, "jenis_obje": null, "luas_m2": 1356.8972597100001, "sumber_dat": null, "keterangan": null, "luas_text": "1356 m²", "_count": 5434.0, "_sum": 2739.9300828915739, "_mean": 0.50421974289502602, "_max": 16.521035766601557, "kode_objek": "G. UKM", "layer": "BG_RTK — zonal_statistics", "path": "C:/Users/Dendi Duandiarta/Documents/semester 6/SURVEI KADASTER/PRAKTIKUM/ACARA 3/output/output/BG_RTK.gpkg|layername=zonal_statistics" }, "geometry": { "type": "MultiPolygon", "coordinates": [ [ [ [ 434657.167700000107288, 9141866.013299999758601 ], [ 434700.722400000318885, 9141852.338899999856949 ], [ 434694.99170000012964, 9141835.191400000825524 ], [ 434669.17090000025928, 9141842.028100000694394 ], [ 434660.64809999987483, 9141817.091099999845028 ], [ 434642.984899999573827, 9141821.845100000500679 ], [ 434657.167700000107288, 9141866.013299999758601 ] ] ] ] } }
]
}
